[{"OBJECT_NAME":"DMC3-FM3","OBJECT_ID":"2015-032C","EPOCH":"2026-03-09T21:48:11.769120","MEAN_MOTION":14.85615899,"ECCENTRICITY":0.00062793,"INCLINATION":97.6715,"RA_OF_ASC_NODE":301.0907,"ARG_OF_PERICENTER":37.2551,"MEAN_ANOMALY":322.9099,"EPHEMERIS_TYPE":0,"CLASSIFICATION_TYPE":"U","NORAD_CAT_ID":40717,"ELEMENT_SET_NO":999,"REV_AT_EPOCH":57517,"BSTAR":0.00010183119,"MEAN_MOTION_DOT":8.3e-6,"MEAN_MOTION_DDOT":0},{"OBJECT_NAME":"CZ-6A DEB","OBJECT_ID":"2022-151WZ","EPOCH":"2026-03-09T03:29:53.048832","MEAN_MOTION":14.7155064,"ECCENTRICITY":0.00816058,"INCLINATION":98.6279,"RA_OF_ASC_NODE":137.1567,"ARG_OF_PERICENTER":198.417,"MEAN_ANOMALY":161.4077,"EPHEMERIS_TYPE":0,"CLASSIFICATION_TYPE":"U","NORAD_CAT_ID":55232,"ELEMENT_SET_NO":999,"REV_AT_EPOCH":17064,"BSTAR":0.0030438598,"MEAN_MOTION_DOT":0.00019914,"MEAN_MOTION_DDOT":0}]
